NORAD_CAT_ID,OBJECT_NAME,OBJECT_TYPE,EPOCH,MEAN_MOTION,ECCENTRICITY,INCLINATION,RA_OF_ASC_NODE,ARG_OF_PERICENTER,MEAN_ANOMALY,BSTAR,MEAN_MOTION_DOT,MEAN_MOTION_DDOT,TLE_LINE0,TLE_LINE1,TLE_LINE2,SEMIMAJOR_AXIS,PERIOD,APOGEE,PERIGEE,DECAYED
52578.0,STARLINK-3833,PAYLOAD,2022-05-18 18:00:00,15.82765408,0.000124,53.2179,269.3541,45.6984,299.896,-0.0045307,-0.00883612,0.0,0 STARLINK-3833,1 52578U 22051AU  22138.75001157 -.00883612  00000-0 -45307-2 0  9990,2 52578  53.2179 269.3541 0001240  45.6984 299.8960 15.82765408  1302,6700.761,90.98,323.457,321.795,0.0
52578.0,STARLINK-3833,PAYLOAD,2022-05-19 14:00:01,15.81189565,0.00018,53.2173,265.1755,26.3746,27.949,-0.004855,-0.00879791,0.0,0 STARLINK-3833,1 52578U 22051AU  22139.58335648 -.00879791  00000-0 -48550-2 0  9993,2 52578  53.2173 265.1755 0001800  26.3746  27.9490 15.81189565  1302,6705.2130000000025,91.071,328.284,325.871,0.0
52578.0,STARLINK-3833,PAYLOAD,2022-05-19 22:00:00,15.80559945,0.0001431999999999,53.2173,263.5072,42.3004,110.0986,-0.0049971,-0.00879294,0.0,0 STARLINK-3833,1 52578U 22051AU  22139.91667824 -.00879294  00000-0 -49971-2 0  9990,2 52578  53.2173 263.5072 0001432  42.3004 110.0986 15.80559945  1487,6706.993,91.107,329.819,327.898,0.0
52578.0,STARLINK-3833,PAYLOAD,2022-05-20 14:00:01,15.79301485,0.0001907,53.2176,260.1751,23.3848,323.0276,-0.0052915,-0.00878845,0.0,0 STARLINK-3833,1 52578U 22051AU  22140.58334491 -.00878845  00000-0 -52915-2 0  9999,2 52578  53.2176 260.1751 0001907  23.3848 323.0276 15.79301485  1300,6710.556,91.18,333.7,331.141,0.0
52578.0,STARLINK-3833,PAYLOAD,2022-05-20 22:00:00,15.78671426,0.00015,53.2171,258.5112,34.4591,47.8261,-0.0054336,-0.0087689,0.0,0 STARLINK-3833,1 52578U 22051AU  22140.91667824 -.00876890  00000-0 -54336-2 0  9992,2 52578  53.2171 258.5112 0001500  34.4591  47.8261 15.78671426  1640,6712.340999999999,91.216,335.213,333.199,0.0
52578.0,STARLINK-3833,PAYLOAD,2022-05-21 06:00:00,15.78041983,0.0001797,53.2172,256.8473,31.9512,145.4514,-0.0055909,-0.00876968,0.0,0 STARLINK-3833,1 52578U 22051AU  22141.25001157 -.00876968  00000-0 -55909-2 0  9994,2 52578  53.2172 256.8473 0001797  31.9512 145.4514 15.78041983  1303,6714.126,91.252,337.19699999999995,334.784,0.0
52578.0,STARLINK-3833,PAYLOAD,2022-05-21 14:00:01,15.77412223,0.0001781,53.2173,255.1887,32.029,239.7987,-0.0057486,-0.0087649,0.0,0 STARLINK-3833,1 52578U 22051AU  22141.58335648 -.00876490  00000-0 -57486-2 0  9997,2 52578  53.2173 255.1887 0001781  32.0290 239.7987 15.77412223  1302,6715.913000000001,91.289,338.974,336.582,0.0
52578.0,STARLINK-3833,PAYLOAD,2022-05-21 20:00:01,15.76941319,0.0001529,53.2174,253.9446,36.5692,215.4651,-0.0058679,-0.00875934,0.0,0 STARLINK-3833,1 52578U 22051AU  22141.83334491 -.00875934  00000-0 -58679-2 0  9997,2 52578  53.2174 253.9446 0001529  36.5692 215.4651 15.76941319  1788,6717.25,91.316,340.142,338.088,0.0
52578.0,STARLINK-3833,PAYLOAD,2022-05-21 22:00:00,15.76784056,0.00015,53.2173,253.5293,32.4959,332.8694,-0.0059176,-0.00877033,0.0,0 STARLINK-3833,1 52578U 22051AU  22141.91667824 -.00877033  00000-0 -59176-2 0  9990,2 52578  53.2173 253.5293 0001500  32.4959 332.8694 15.76784056  1305,6717.696,91.325,340.569,338.5540000000001,0.0
52578.0,STARLINK-3833,PAYLOAD,2022-05-22 14:00:01,15.75523916,0.0002302,53.2175,250.2162,22.5202,167.7849,-0.0062394,-0.00874907,0.0,0 STARLINK-3833,1 52578U 22051AU  22142.58334491 -.00874907  00000-0 -62394-2 0  9998,2 52578  53.2175 250.2162 0002302  22.5202 167.7849 15.75523916  1906,6721.278,91.398,344.69,341.595,0.0
52578.0,STARLINK-3833,PAYLOAD,2022-05-22 22:00:01,15.74896528,0.0001608,53.2172,248.5611,35.0664,246.6391,-0.0064392,-0.00877743,0.0,0 STARLINK-3833,1 52578U 22051AU  22142.91668981 -.00877743  00000-0 -64392-2 0  9990,2 52578  53.2172 248.5611 0001608  35.0664 246.6391 15.74896528  1305,6723.063,91.435,346.009,343.847,0.0
52578.0,STARLINK-3833,PAYLOAD,2022-05-23 14:00:01,15.73557749,0.000204,53.2172,245.2584,24.6817,77.3707,-0.0045903,-0.00609662,0.0,0 STARLINK-3833,1 52578U 22051AU  22143.58334491 -.00609662  00000-0 -45903-2 0  9990,2 52578  53.2172 245.2584 0002040  24.6817  77.3707 15.73557749  1301,6726.875,91.512,350.11300000000006,347.36800000000005,0.0
52578.0,STARLINK-3833,PAYLOAD,2022-05-23 16:00:00,15.73451104,0.0002018,53.2175,244.8464,28.1473,186.2297,-0.004716,-0.00622517,0.0,0 STARLINK-3833,1 52578U 22051AU  22143.66667824 -.00622517  00000-0 -47160-2 0  9999,2 52578  53.2175 244.8464 0002018  28.1473 186.2297 15.73451104  2075,6727.179,91.519,350.402,347.68699999999984,0.0
52578.0,STARLINK-3833,PAYLOAD,2022-05-23 22:00:01,15.73174725,0.0001563,53.2174,243.6089,41.6377,149.5735,-0.0065589,-0.00833901,0.0,0 STARLINK-3833,1 52578U 22051AU  22143.91668981 -.00833901  00000-0 -65589-2 0  9998,2 52578  53.2174 243.6089 0001563  41.6377 149.5735 15.73174725  1306,6727.967,91.535,350.884,348.781,0.0
52578.0,STARLINK-3833,PAYLOAD,2022-05-24 04:00:00,15.72725583,0.0001717,53.2173,242.3723,35.2698,132.3418,-0.0066527,-0.00830051,0.0,0 STARLINK-3833,1 52578U 22051AU  22144.16667824 -.00830051  00000-0 -66527-2 0  9997,2 52578  53.2173 242.3723 0001717  35.2698 132.3418 15.72725583  2157,6729.248000000001,91.561,352.269,349.958,0.0
52578.0,STARLINK-3833,PAYLOAD,2022-05-24 12:26:34,15.72446098,0.0001607,53.2229,240.6436,27.5221,332.5884,-0.0028361,-0.00369566,0.0,0 STARLINK-3833,1 52578U 22051AU  22144.51845736 -.00369566  00000-0 -28361-2 0  9998,2 52578  53.2229 240.6436 0001607  27.5221 332.5884 15.72446098  2214,6730.045,91.577,352.992,350.829,0.0
52578.0,STARLINK-3833,PAYLOAD,2022-05-24 22:00:00,15.71385502,0.0001639,53.2172,238.6726,31.6327,62.9551,-0.0070426,-0.00829782,0.0,0 STARLINK-3833,1 52578U 22051AU  22144.91667824 -.00829782  00000-0 -70426-2 0  9992,2 52578  53.2172 238.6726 0001639  31.6327  62.9551 15.71385502  2270,6733.073,91.639,356.042,353.835,0.0
52578.0,STARLINK-3833,PAYLOAD,2022-05-25 14:00:01,15.70195053,0.0001803,53.2174,235.3901,33.7256,232.9097,-0.0074198,-0.0083124,0.0,0 STARLINK-3833,1 52578U 22051AU  22145.58334491 -.00831240  00000-0 -74198-2 0  9999,2 52578  53.2174 235.3901 0001803  33.7256 232.9097 15.70195053  1304,6736.476,91.708,359.556,357.126,0.0
52578.0,STARLINK-3833,PAYLOAD,2022-05-25 17:27:07,15.70294776,0.0002034,53.2229,234.6822,39.0359,321.0807,-0.0031848,-0.00378531,0.0,0 STARLINK-3833,1 52578U 22051AU  22145.72717411 -.00378531  00000-0 -31848-2 0  9996,2 52578  53.2229 234.6822 0002034  39.0359 321.0807 15.70294776  2402,6736.191,91.703,359.426,356.686,0.0
52578.0,STARLINK-3833,PAYLOAD,2022-05-26 06:00:00,15.69001624,0.0001912,53.2177,232.1102,25.6827,50.1397,-0.0077519999999999,-0.00826686,0.0,0 STARLINK-3833,1 52578U 22051AU  22146.25001157 -.00826686  00000-0 -77520-2 0  9994,2 52578  53.2177 232.1102 0001912  25.6827  50.1397 15.69001624  2481,6739.892,91.778,363.045,360.468,0.0
52578.0,STARLINK-3833,PAYLOAD,2022-05-26 11:47:40,15.69012428,0.0001995,53.2227,230.9239,41.5411,318.5759,-0.0018851,-0.00216777,0.0,0 STARLINK-3833,1 52578U 22051AU  22146.49144406 -.00216777  00000-0 -18851-2 0  9991,2 52578  53.2227 230.9239 0001995  41.5411 318.5759 15.69012428  2523,6739.861,91.777,363.07,360.381,0.0
52578.0,STARLINK-3833,PAYLOAD,2022-05-26 13:19:24,15.68853607,0.0002042,53.2228,230.6103,42.6194,317.4983,-0.0031305,-0.00351581,0.0,0 STARLINK-3833,1 52578U 22051AU  22146.55514450 -.00351581  00000-0 -31305-2 0  9990,2 52578  53.2228 230.6103 0002042  42.6194 317.4983 15.68853607  2466,6740.316,91.787,363.557,360.804,0.0
52578.0,STARLINK-3833,PAYLOAD,2022-05-26 20:00:01,15.6796051,0.0001786,53.2172,229.2482,32.3259,99.1841,-0.008119,-0.00829021,0.0,0 STARLINK-3833,1 52578U 22051AU  22146.83334491 -.00829021  00000-0 -81190-2 0  9992,2 52578  53.2172 229.2482 0001786  32.3259  99.1841 15.67960510  2570,6742.875,91.839,365.944,363.535,0.0
52578.0,STARLINK-3833,PAYLOAD,2022-05-26 20:58:20,15.68210468,0.0002234,53.2229,229.0464,22.2816,337.8299,-0.0027794,-0.00305736,0.0,0 STARLINK-3833,1 52578U 22051AU  22146.87384296 -.00305736  00000-0 -27794-2 0  9996,2 52578  53.2229 229.0464 0002234  22.2816 337.8299 15.68210468  2511,6742.158,91.824,365.529,362.517,0.0
52578.0,STARLINK-3833,PAYLOAD,2022-05-27 13:48:24,15.67099813,0.0001746,53.2229,225.6065,37.6661,322.4478,-0.0017479,-0.00186579,0.0,0 STARLINK-3833,1 52578U 22051AU  22147.57528260 -.00186579  00000-0 -17479-2 0  9996,2 52578  53.2229 225.6065 0001746  37.6661 322.4478 15.67099813  2624,6745.343000000003,91.889,368.386,366.031,0.0
52578.0,STARLINK-3833,PAYLOAD,2022-05-27 22:00:01,15.66024641,0.0001635,53.2174,223.9419,36.0663,90.2578,-0.0087821,-0.0082852999999999,0.0,0 STARLINK-3833,1 52578U 22051AU  22147.91668981 -.00828530  00000-0 -87821-2 0  9997,2 52578  53.2174 223.9419 0001635  36.0663  90.2578 15.66024641  2749,6748.431,91.953,371.399,369.192,0.0
52578.0,STARLINK-3833,PAYLOAD,2022-05-28 14:00:01,15.64833457,0.0001823,53.2178,220.6859,31.8327,253.5895,-0.0092151,-0.00828659,0.0,0 STARLINK-3833,1 52578U 22051AU  22148.58334491 -.00828659  00000-0 -92151-2 0  9991,2 52578  53.2178 220.6859 0001823  31.8327 253.5895 15.64833457  1302,6751.855,92.023,374.951,372.489,0.0
52578.0,STARLINK-3833,PAYLOAD,2022-05-28 22:00:00,15.64237681,0.0001615,53.2177,219.0577,30.5603,333.3714,-0.0094359,-0.00828482,0.0,0 STARLINK-3833,1 52578U 22051AU  22148.91667824 -.00828482  00000-0 -94359-2 0  9993,2 52578  53.2177 219.0577 0001615  30.5603 333.3714 15.64237681  2903,6753.569,92.058,376.525,374.343,0.0
52578.0,STARLINK-3833,PAYLOAD,2022-05-29 13:19:24,15.63614314,5.13e-05,53.2225,215.9309,352.6749,7.426,-0.004409,-0.00398218,0.0,0 STARLINK-3833,1 52578U 22051AU  22149.55514598 -.00398218  00000-0 -44090-2 0  9999,2 52578  53.2225 215.9309 0000513 352.6749   7.4260 15.63614314  2939,6755.364000000001,92.094,377.575,376.882,0.0
